[{"OBJECT_NAME":"STARLINK-31370","OBJECT_ID":"2024-073K","EPOCH":"2026-03-09T00:54:37.681632","MEAN_MOTION":15.27574936,"ECCENTRICITY":7.163e-5,"INCLINATION":43.0011,"RA_OF_ASC_NODE":321.9034,"ARG_OF_PERICENTER":322.731,"MEAN_ANOMALY":37.3491,"EPHEMERIS_TYPE":0,"CLASSIFICATION_TYPE":"U","NORAD_CAT_ID":59520,"ELEMENT_SET_NO":999,"REV_AT_EPOCH":10607,"BSTAR":3.622421e-6,"MEAN_MOTION_DOT":-1.62e-6,"MEAN_MOTION_DDOT":0},{"OBJECT_NAME":"NUSAT-48 (HENRIETTA LEAVITT)","OBJECT_ID":"2024-149AG","EPOCH":"2026-03-09T19:19:17.269536","MEAN_MOTION":15.29812597,"ECCENTRICITY":0.00027538,"INCLINATION":97.3923,"RA_OF_ASC_NODE":150.8264,"ARG_OF_PERICENTER":263.3026,"MEAN_ANOMALY":96.7901,"EPHEMERIS_TYPE":0,"CLASSIFICATION_TYPE":"U","NORAD_CAT_ID":60498,"ELEMENT_SET_NO":999,"REV_AT_EPOCH":8694,"BSTAR":0.00045211745,"MEAN_MOTION_DOT":0.00012988,"MEAN_MOTION_DDOT":0}]
